{
  "type": "FeatureCollection",
  "features": [
    {
      "type": "Feature",
      "properties": {
        "norad_id": 34079,
        "name": "IRIDIUM 33 DEB",
        "group": "iridium-33-debris",
        "lat": 51.53889540907683,
        "lon": 12.915124573325668,
        "alt_km": 610.7608849631761,
        "timestamp": "2025-12-13T10:41:26.150775+00:00",
        "meta_object_name": "IRIDIUM 33 DEB",
        "meta_object_id": "1997-051CN",
        "meta_epoch": "2025-12-13T01:00:32.224032",
        "meta_mean_motion": 14.83541673,
        "meta_eccentricity": 0.00055382,
        "meta_inclination": 86.3782,
        "meta_ra_of_asc_node": 8.5249,
        "meta_arg_of_pericenter": 7.2027,
        "meta_mean_anomaly": 51.4492,
        "meta_ephemeris_type": 0,
        "meta_classification_type": "U",
        "meta_norad_cat_id": 34079,
        "meta_element_set_no": 999,
        "meta_rev_at_epoch": 88982,
        "meta_bstar": 0.0022677142,
        "meta_mean_motion_dot": 0.00018725,
        "meta_mean_motion_ddot": 0,
        "tle_line1": "1 34079U 97051CN  25347.04203963  .00018725  00000+0  22677-2 0  9991",
        "tle_line2": "2 34079  86.3782   8.5249 0005538   7.2027  51.4492 14.83541673889828"
      },
      "geometry": {
        "type": "Point",
        "coordinates": [
          12.915124573325668,
          51.53889540907683
        ]
      }
    },
    {
      "type": "Feature",
      "properties": {
        "norad_id": 34088,
        "name": "IRIDIUM 33 DEB",
        "group": "iridium-33-debris",
        "lat": 16.897166727664374,
        "lon": -150.70065345428182,
        "alt_km": 590.2148024086891,
        "timestamp": "2025-12-13T10:41:26.150786+00:00",
        "meta_object_name": "IRIDIUM 33 DEB",
        "meta_object_id": "1997-051CX",
        "meta_epoch": "2025-12-12T23:15:52.259040",
        "meta_mean_motion": 14.91405495,
        "meta_eccentricity": 0.00057338,
        "meta_inclination": 86.3851,
        "meta_ra_of_asc_node": 30.6184,
        "meta_arg_of_pericenter": 175.6058,
        "meta_mean_anomaly": 312.8964,
        "meta_ephemeris_type": 0,
        "meta_classification_type": "U",
        "meta_norad_cat_id": 34088,
        "meta_element_set_no": 999,
        "meta_rev_at_epoch": 88745,
        "meta_bstar": 0.0034746874,
        "meta_mean_motion_dot": 0.00034855,
        "meta_mean_motion_ddot": 0,
        "tle_line1": "1 34088U 97051CX  25346.96935485  .00034855  00000+0  34747-2 0  9995",
        "tle_line2": "2 34088  86.3851  30.6184 0005733 175.6058 312.8964 14.91405495887455"
      },
      "geometry": {
        "type": "Point",
        "coordinates": [
          -150.70065345428182,
          16.897166727664374
        ]
      }
    },
    {
      "type": "Feature",
      "properties": {
        "norad_id": 34091,
        "name": "IRIDIUM 33 DEB",
        "group": "iridium-33-debris",
        "lat": -35.581436710559274,
        "lon": 63.8866705232857,
        "alt_km": 610.2369835568252,
        "timestamp": "2025-12-13T10:41:26.150796+00:00",
        "meta_object_name": "IRIDIUM 33 DEB",
        "meta_object_id": "1997-051DA",
        "meta_epoch": "2025-12-12T15:24:10.062432",
        "meta_mean_motion": 14.81820135,
        "meta_eccentricity": 0.00333928,
        "meta_inclination": 86.3415,
        "meta_ra_of_asc_node": 66.8784,
        "meta_arg_of_pericenter": 293.6257,
        "meta_mean_anomaly": 66.146,
        "meta_ephemeris_type": 0,
        "meta_classification_type": "U",
        "meta_norad_cat_id": 34091,
        "meta_element_set_no": 999,
        "meta_rev_at_epoch": 87865,
        "meta_bstar": 0.0068724224,
        "meta_mean_motion_dot": 0.0005519,
        "meta_mean_motion_ddot": 0,
        "tle_line1": "1 34091U 97051DA  25346.64178313  .00055190  00000+0  68724-2 0  9990",
        "tle_line2": "2 34091  86.3415  66.8784 0033392 293.6257  66.1460 14.81820135878659"
      },
      "geometry": {
        "type": "Point",
        "coordinates": [
          63.8866705232857,
          -35.581436710559274
        ]
      }
    },
    {
      "type": "Feature",
      "properties": {
        "norad_id": 34097,
        "name": "IRIDIUM 33 DEB",
        "group": "iridium-33-debris",
        "lat": 84.43274585134166,
        "lon": 138.1236859876179,
        "alt_km": 772.16113380151,
        "timestamp": "2025-12-13T10:41:26.150807+00:00",
        "meta_object_name": "IRIDIUM 33 DEB",
        "meta_object_id": "1997-051DG",
        "meta_epoch": "2025-12-13T00:12:56.160576",
        "meta_mean_motion": 14.34780103,
        "meta_eccentricity": 0.00825771,
        "meta_inclination": 86.2011,
        "meta_ra_of_asc_node": 1.2893,
        "meta_arg_of_pericenter": 1.3032,
        "meta_mean_anomaly": 358.8362,
        "meta_ephemeris_type": 0,
        "meta_classification_type": "U",
        "meta_norad_cat_id": 34097,
        "meta_element_set_no": 999,
        "meta_rev_at_epoch": 87123,
        "meta_bstar": 0.0020695009,
        "meta_mean_motion_dot": 6.116e-05,
        "meta_mean_motion_ddot": 0,
        "tle_line1": "1 34097U 97051DG  25347.00898334  .00006116  00000+0  20695-2 0  9998",
        "tle_line2": "2 34097  86.2011   1.2893 0082577   1.3032 358.8362 14.34780103871231"
      },
      "geometry": {
        "type": "Point",
        "coordinates": [
          138.1236859876179,
          84.43274585134166
        ]
      }
    },
    {
      "type": "Feature",
      "properties": {
        "norad_id": 34145,
        "name": "IRIDIUM 33 DEB",
        "group": "iridium-33-debris",
        "lat": 20.68948193506715,
        "lon": -26.35363293738983,
        "alt_km": 737.5760671211629,
        "timestamp": "2025-12-13T10:41:26.150818+00:00",
        "meta_object_name": "IRIDIUM 33 DEB",
        "meta_object_id": "1997-051DY",
        "meta_epoch": "2025-12-12T16:16:44.668992",
        "meta_mean_motion": 14.4228829,
        "meta_eccentricity": 0.00557169,
        "meta_inclination": 86.2122,
        "meta_ra_of_asc_node": 332.5542,
        "meta_arg_of_pericenter": 94.0004,
        "meta_mean_anomaly": 266.7567,
        "meta_ephemeris_type": 0,
        "meta_classification_type": "U",
        "meta_norad_cat_id": 34145,
        "meta_element_set_no": 999,
        "meta_rev_at_epoch": 87637,
        "meta_bstar": 0.0016937605,
        "meta_mean_motion_dot": 5.713e-05,
        "meta_mean_motion_ddot": 0,
        "tle_line1": "1 34145U 97051DY  25346.67829478  .00005713  00000+0  16938-2 0  9994",
        "tle_line2": "2 34145  86.2122 332.5542 0055716  94.0004 266.7567 14.42288290876375"
      },
      "geometry": {
        "type": "Point",
        "coordinates": [
          -26.35363293738983,
          20.68948193506715
        ]
      }
    },
    {
      "type": "Feature",
      "properties": {
        "norad_id": 34146,
        "name": "IRIDIUM 33 DEB",
        "group": "iridium-33-debris",
        "lat": 36.08656858932025,
        "lon": -7.795984805260376,
        "alt_km": 744.4370021209443,
        "timestamp": "2025-12-13T10:41:26.150828+00:00",
        "meta_object_name": "IRIDIUM 33 DEB",
        "meta_object_id": "1997-051DZ",
        "meta_epoch": "2025-12-13T00:49:46.396128",
        "meta_mean_motion": 14.49052828,
        "meta_eccentricity": 0.00255219,
        "meta_inclination": 86.284,
        "meta_ra_of_asc_node": 349.6704,
        "meta_arg_of_pericenter": 220.5759,
        "meta_mean_anomaly": 193.6674,
        "meta_ephemeris_type": 0,
        "meta_classification_type": "U",
        "meta_norad_cat_id": 34146,
        "meta_element_set_no": 999,
        "meta_rev_at_epoch": 88111,
        "meta_bstar": 0.0014073171,
        "meta_mean_motion_dot": 5.383e-05,
        "meta_mean_motion_ddot": 0,
        "tle_line1": "1 34146U 97051DZ  25347.03456477  .00005383  00000+0  14073-2 0  9992",
        "tle_line2": "2 34146  86.2840 349.6704 0025521 220.5759 193.6674 14.49052828881114"
      },
      "geometry": {
        "type": "Point",
        "coordinates": [
          -7.795984805260376,
          36.08656858932025
        ]
      }
    },
    {
      "type": "Feature",
      "properties": {
        "norad_id": 34159,
        "name": "IRIDIUM 33 DEB",
        "group": "iridium-33-debris",
        "lat": 83.32562138008589,
        "lon": 80.9878119212073,
        "alt_km": 773.3747044601541,
        "timestamp": "2025-12-13T10:41:26.150839+00:00",
        "meta_object_name": "IRIDIUM 33 DEB",
        "meta_object_id": "1997-051EN",
        "meta_epoch": "2025-12-12T15:56:04.942176",
        "meta_mean_motion": 14.38494722,
        "meta_eccentricity": 0.00260005,
        "meta_inclination": 86.351,
        "meta_ra_of_asc_node": 48.2735,
        "meta_arg_of_pericenter": 288.0794,
        "meta_mean_anomaly": 71.7572,
        "meta_ephemeris_type": 0,
        "meta_classification_type": "U",
        "meta_norad_cat_id": 34159,
        "meta_element_set_no": 999,
        "meta_rev_at_epoch": 87958,
        "meta_bstar": 0.00069408057,
        "meta_mean_motion_dot": 2.146e-05,
        "meta_mean_motion_ddot": 0,
        "tle_line1": "1 34159U 97051EN  25346.66394609  .00002146  00000+0  69408-3 0  9999",
        "tle_line2": "2 34159  86.3510  48.2735 0026000 288.0794  71.7572 14.38494722879582"
      },
      "geometry": {
        "type": "Point",
        "coordinates": [
          80.9878119212073,
          83.32562138008589
        ]
      }
    }
  ]
}